{
  "type": "FeatureCollection",
  "features": [
    {
      "type": "Feature",
      "properties": {
        "norad_id": 29268,
        "name": "ARIRANG-2 (KOMPSAT-2)",
        "group": "resource",
        "lat": 81.06665362101205,
        "lon": 120.72206340079963,
        "alt_km": 680.0278713041216,
        "timestamp": "2025-12-19T14:48:35.900908+00:00",
        "meta_object_name": "ARIRANG-2 (KOMPSAT-2)",
        "meta_object_id": "2006-031A",
        "meta_epoch": "2025-12-19T08:25:12.253728",
        "meta_mean_motion": 14.64499138,
        "meta_eccentricity": 0.00132307,
        "meta_inclination": 97.8254,
        "meta_ra_of_asc_node": 181.5009,
        "meta_arg_of_pericenter": 286.542,
        "meta_mean_anomaly": 196.2446,
        "meta_ephemeris_type": 0,
        "meta_classification_type": "U",
        "meta_norad_cat_id": 29268,
        "meta_element_set_no": 999,
        "meta_rev_at_epoch": 3515,
        "meta_bstar": 4.9019553e-05,
        "meta_mean_motion_dot": 2.15e-06,
        "meta_mean_motion_ddot": 0,
        "tle_line1": "1 29268U 06031A   25353.35083627  .00000215  00000+0  49020-4 0  9995",
        "tle_line2": "2 29268  97.8254 181.5009 0013230 286.5420 196.2446 14.64499138 35159"
      },
      "geometry": {
        "type": "Point",
        "coordinates": [
          120.72206340079963,
          81.06665362101205
        ]
      }
    },
    {
      "type": "Feature",
      "properties": {
        "norad_id": 29709,
        "name": "LAPAN-TUBSAT",
        "group": "resource",
        "lat": -4.2163942048280045,
        "lon": 163.31187671417206,
        "alt_km": 621.1149329339796,
        "timestamp": "2025-12-19T14:48:35.900919+00:00",
        "meta_object_name": "LAPAN-TUBSAT",
        "meta_object_id": "2007-001A",
        "meta_epoch": "2025-12-19T05:54:10.055808",
        "meta_mean_motion": 14.85678566,
        "meta_eccentricity": 0.00134388,
        "meta_inclination": 98.1251,
        "meta_ra_of_asc_node": 343.5366,
        "meta_arg_of_pericenter": 54.7711,
        "meta_mean_anomaly": 305.476,
        "meta_ephemeris_type": 0,
        "meta_classification_type": "U",
        "meta_norad_cat_id": 29709,
        "meta_element_set_no": 999,
        "meta_rev_at_epoch": 2443,
        "meta_bstar": 2.4501631e-05,
        "meta_mean_motion_dot": 1.55e-06,
        "meta_mean_motion_ddot": 0,
        "tle_line1": "1 29709U 07001A   25353.24594972  .00000155  00000+0  24502-4 0  9992",
        "tle_line2": "2 29709  98.1251 343.5366 0013438  54.7711 305.4760 14.85678566 24433"
      },
      "geometry": {
        "type": "Point",
        "coordinates": [
          163.31187671417206,
          -4.2163942048280045
        ]
      }
    },
    {
      "type": "Feature",
      "properties": {
        "norad_id": 31113,
        "name": "HAIYANG-1B",
        "group": "resource",
        "lat": 22.834391353172347,
        "lon": 161.1490149648925,
        "alt_km": 795.5524258857431,
        "timestamp": "2025-12-19T14:48:35.900929+00:00",
        "meta_object_name": "HAIYANG-1B",
        "meta_object_id": "2007-010A",
        "meta_epoch": "2025-12-18T22:58:37.050528",
        "meta_mean_motion": 14.3096715,
        "meta_eccentricity": 0.00139689,
        "meta_inclination": 98.3319,
        "meta_ra_of_asc_node": 336.9788,
        "meta_arg_of_pericenter": 20.3942,
        "meta_mean_anomaly": 339.7797,
        "meta_ephemeris_type": 0,
        "meta_classification_type": "U",
        "meta_norad_cat_id": 31113,
        "meta_element_set_no": 999,
        "meta_rev_at_epoch": 97485,
        "meta_bstar": 4.9048462e-05,
        "meta_mean_motion_dot": 8.7e-07,
        "meta_mean_motion_ddot": 0,
        "tle_line1": "1 31113U 07010A   25352.95737327  .00000087  00000+0  49048-4 0  9990",
        "tle_line2": "2 31113  98.3319 336.9788 0013968  20.3942 339.7797 14.30967150974859"
      },
      "geometry": {
        "type": "Point",
        "coordinates": [
          161.1490149648925,
          22.834391353172347
        ]
      }
    },
    {
      "type": "Feature",
      "properties": {
        "norad_id": 31598,
        "name": "COSMO-SKYMED 1",
        "group": "resource",
        "lat": 29.608058154940622,
        "lon": 174.54492175979277,
        "alt_km": 577.7860223933812,
        "timestamp": "2025-12-19T14:48:35.900940+00:00",
        "meta_object_name": "COSMO-SKYMED 1",
        "meta_object_id": "2007-023A",
        "meta_epoch": "2025-12-19T06:38:57.530400",
        "meta_mean_motion": 14.95814401,
        "meta_eccentricity": 0.00015764,
        "meta_inclination": 97.8836,
        "meta_ra_of_asc_node": 178.719,
        "meta_arg_of_pericenter": 86.1612,
        "meta_mean_anomaly": 273.9789,
        "meta_ephemeris_type": 0,
        "meta_classification_type": "U",
        "meta_norad_cat_id": 31598,
        "meta_element_set_no": 999,
        "meta_rev_at_epoch": 288,
        "meta_bstar": 0.00030160591,
        "meta_mean_motion_dot": 3.308e-05,
        "meta_mean_motion_ddot": 0,
        "tle_line1": "1 31598U 07023A   25353.27705475  .00003308  00000+0  30161-3 0  9990",
        "tle_line2": "2 31598  97.8836 178.7190 0001576  86.1612 273.9789 14.95814401  2885"
      },
      "geometry": {
        "type": "Point",
        "coordinates": [
          174.54492175979277,
          29.608058154940622
        ]
      }
    },
    {
      "type": "Feature",
      "properties": {
        "norad_id": 31698,
        "name": "TERRASAR-X",
        "group": "resource",
        "lat": -79.88102644116033,
        "lon": 131.77963392232186,
        "alt_km": 517.0254495060626,
        "timestamp": "2025-12-19T14:48:35.900951+00:00",
        "meta_object_name": "TERRASAR-X",
        "meta_object_id": "2007-026A",
        "meta_epoch": "2025-12-18T12:21:42.553440",
        "meta_mean_motion": 15.19151199,
        "meta_eccentricity": 0.00018406,
        "meta_inclination": 97.4454,
        "meta_ra_of_asc_node": 357.8116,
        "meta_arg_of_pericenter": 91.5233,
        "meta_mean_anomaly": 268.6213,
        "meta_ephemeris_type": 0,
        "meta_classification_type": "U",
        "meta_norad_cat_id": 31698,
        "meta_element_set_no": 999,
        "meta_rev_at_epoch": 2579,
        "meta_bstar": 3.8823467e-05,
        "meta_mean_motion_dot": 7.48e-06,
        "meta_mean_motion_ddot": 0,
        "tle_line1": "1 31698U 07026A   25352.51507585  .00000748  00000+0  38823-4 0  9991",
        "tle_line2": "2 31698  97.4454 357.8116 0001840  91.5233 268.6213 15.19151199 25792"
      },
      "geometry": {
        "type": "Point",
        "coordinates": [
          131.77963392232186,
          -79.88102644116033
        ]
      }
    },
    {
      "type": "Feature",
      "properties": {
        "norad_id": 32060,
        "name": "WORLDVIEW-1 (WV-1)",
        "group": "resource",
        "lat": 42.23866320677742,
        "lon": 104.23921469996854,
        "alt_km": 487.84060003969716,
        "timestamp": "2025-12-19T14:48:35.900961+00:00",
        "meta_object_name": "WORLDVIEW-1 (WV-1)",
        "meta_object_id": "2007-041A",
        "meta_epoch": "2025-12-19T06:44:54.483360",
        "meta_mean_motion": 15.24792332,
        "meta_eccentricity": 9.536e-05,
        "meta_inclination": 97.3841,
        "meta_ra_of_asc_node": 110.6704,
        "meta_arg_of_pericenter": 118.2645,
        "meta_mean_anomaly": 241.869,
        "meta_ephemeris_type": 0,
        "meta_classification_type": "U",
        "meta_norad_cat_id": 32060,
        "meta_element_set_no": 999,
        "meta_rev_at_epoch": 1547,
        "meta_bstar": 0.00027187849,
        "meta_mean_motion_dot": 6.672e-05,
        "meta_mean_motion_ddot": 0,
        "tle_line1": "1 32060U 07041A   25353.28118615  .00006672  00000+0  27188-3 0  9992",
        "tle_line2": "2 32060  97.3841 110.6704 0000953 118.2645 241.8690 15.24792332 15473"
      },
      "geometry": {
        "type": "Point",
        "coordinates": [
          104.23921469996854,
          42.23866320677742
        ]
      }
    },
    {
      "type": "Feature",
      "properties": {
        "norad_id": 32289,
        "name": "YAOGAN-3",
        "group": "resource",
        "lat": 81.55379724001388,
        "lon": -91.77814402660611,
        "alt_km": 590.0211873831176,
        "timestamp": "2025-12-19T14:48:35.900972+00:00",
        "meta_object_name": "YAOGAN-3",
        "meta_object_id": "2007-055A",
        "meta_epoch": "2025-12-19T07:56:46.209696",
        "meta_mean_motion": 14.89888677,
        "meta_eccentricity": 0.00012536,
        "meta_inclination": 97.8361,
        "meta_ra_of_asc_node": 19.8975,
        "meta_arg_of_pericenter": 72.2749,
        "meta_mean_anomaly": 287.8605,
        "meta_ephemeris_type": 0,
        "meta_classification_type": "U",
        "meta_norad_cat_id": 32289,
        "meta_element_set_no": 999,
        "meta_rev_at_epoch": 97907,
        "meta_bstar": 0.00016900083,
        "meta_mean_motion_dot": 1.569e-05,
        "meta_mean_motion_ddot": 0,
        "tle_line1": "1 32289U 07055A   25353.33109039  .00001569  00000+0  16900-3 0  9996",
        "tle_line2": "2 32289  97.8361  19.8975 0001253  72.2749 287.8605 14.89888677979075"
      },
      "geometry": {
        "type": "Point",
        "coordinates": [
          -91.77814402660611,
          81.55379724001388
        ]
      }
    }
  ]
}